CCSDS_OMM_VERS = 2.0
CREATION_DATE  = 
ORIGINATOR     = 

OBJECT_NAME    = IDEFIX & ARIANE 42P R/B
OBJECT_ID      = 2002-021B
CENTER_NAME    = EARTH
REF_FRAME      = TEME
TIME_SYSTEM    = UTC
MEAN_ELEMENT_THEORY = SGP/SGP4

EPOCH          = 2026-01-24T05:39:53.992512
MEAN_MOTION    = 14.30989591
ECCENTRICITY   = .00112172
INCLINATION    = 98.5830
RA_OF_ASC_NODE = 323.3863
ARG_OF_PERICENTER = 323.4938
MEAN_ANOMALY   = 36.5480

EPHEMERIS_TYPE = 0
CLASSIFICATION_TYPE = U
NORAD_CAT_ID   = 27422
ELEMENT_SET_NO = 999
REV_AT_EPOCH   = 23766
BSTAR          = .26092299E-3
MEAN_MOTION_DOT = .643E-5
MEAN_MOTION_DDOT = 0

CCSDS_OMM_VERS = 2.0
CREATION_DATE  = 
ORIGINATOR     = 

OBJECT_NAME    = AQUA
OBJECT_ID      = 2002-022A
CENTER_NAME    = EARTH
REF_FRAME      = TEME
TIME_SYSTEM    = UTC
MEAN_ELEMENT_THEORY = SGP/SGP4

EPOCH          = 2026-01-24T06:33:05.067648
MEAN_MOTION    = 14.61854293
ECCENTRICITY   = .00019195
INCLINATION    = 98.4098
RA_OF_ASC_NODE = 350.8569
ARG_OF_PERICENTER = 66.9735
MEAN_ANOMALY   = 38.1578

EPHEMERIS_TYPE = 0
CLASSIFICATION_TYPE = U
NORAD_CAT_ID   = 27424
ELEMENT_SET_NO = 999
REV_AT_EPOCH   = 26224
BSTAR          = .41554376E-3
MEAN_MOTION_DOT = .2028E-4
MEAN_MOTION_DDOT = 0

CCSDS_OMM_VERS = 2.0
CREATION_DATE  = 
ORIGINATOR     = 

OBJECT_NAME    = CZ-4B R/B
OBJECT_ID      = 2002-024C
CENTER_NAME    = EARTH
REF_FRAME      = TEME
TIME_SYSTEM    = UTC
MEAN_ELEMENT_THEORY = SGP/SGP4

EPOCH          = 2026-01-24T03:46:50.450304
MEAN_MOTION    = 14.14538810
ECCENTRICITY   = .00507366
INCLINATION    = 98.8933
RA_OF_ASC_NODE = 77.7680
ARG_OF_PERICENTER = 148.6079
MEAN_ANOMALY   = 276.2436

EPHEMERIS_TYPE = 0
CLASSIFICATION_TYPE = U
NORAD_CAT_ID   = 27432
ELEMENT_SET_NO = 999
REV_AT_EPOCH   = 22294
BSTAR          = .94243377E-4
MEAN_MOTION_DOT = .139E-5
MEAN_MOTION_DDOT = 0

CCSDS_OMM_VERS = 2.0
CREATION_DATE  = 
ORIGINATOR     = 

OBJECT_NAME    = MIDORI II (ADEOS-II)
OBJECT_ID      = 2002-056A
CENTER_NAME    = EARTH
REF_FRAME      = TEME
TIME_SYSTEM    = UTC
MEAN_ELEMENT_THEORY = SGP/SGP4

EPOCH          = 2026-01-24T03:21:45.458208
MEAN_MOTION    = 14.29246492
ECCENTRICITY   = .00019642
INCLINATION    = 98.7697
RA_OF_ASC_NODE = 342.3329
ARG_OF_PERICENTER = 105.2463
MEAN_ANOMALY   = 254.8936

EPHEMERIS_TYPE = 0
CLASSIFICATION_TYPE = U
NORAD_CAT_ID   = 27597
ELEMENT_SET_NO = 999
REV_AT_EPOCH   = 20393
BSTAR          = .30941615E-3
MEAN_MOTION_DOT = .741E-5
MEAN_MOTION_DDOT = 0

CCSDS_OMM_VERS = 2.0
CREATION_DATE  = 
ORIGINATOR     = 

OBJECT_NAME    = H-2A R/B
OBJECT_ID      = 2002-056E
CENTER_NAME    = EARTH
REF_FRAME      = TEME
TIME_SYSTEM    = UTC
MEAN_ELEMENT_THEORY = SGP/SGP4

EPOCH          = 2026-01-24T07:58:55.680096
MEAN_MOTION    = 14.33723133
ECCENTRICITY   = .00691668
INCLINATION    = 98.3126
RA_OF_ASC_NODE = 346.4091
ARG_OF_PERICENTER = 294.3357
MEAN_ANOMALY   = 179.7226

EPHEMERIS_TYPE = 0
CLASSIFICATION_TYPE = U
NORAD_CAT_ID   = 27601
ELEMENT_SET_NO = 999
REV_AT_EPOCH   = 20775
BSTAR          = .25680748E-3
MEAN_MOTION_DOT = .69E-5
MEAN_MOTION_DDOT = 0

CCSDS_OMM_VERS = 2.0
CREATION_DATE  = 
ORIGINATOR     = 

OBJECT_NAME    = CZ-4B R/B
OBJECT_ID      = 2003-049C
CENTER_NAME    = EARTH
REF_FRAME      = TEME
TIME_SYSTEM    = UTC
MEAN_ELEMENT_THEORY = SGP/SGP4

EPOCH          = 2026-01-24T05:36:59.436864
MEAN_MOTION    = 14.54963482
ECCENTRICITY   = .00484336
INCLINATION    = 98.6829
RA_OF_ASC_NODE = 17.4133
ARG_OF_PERICENTER = 8.7857
MEAN_ANOMALY   = 351.4175

EPHEMERIS_TYPE = 0
CLASSIFICATION_TYPE = U
NORAD_CAT_ID   = 28059
ELEMENT_SET_NO = 999
REV_AT_EPOCH   = 18013
BSTAR          = .22144433E-3
MEAN_MOTION_DOT = .916E-5
MEAN_MOTION_DDOT = 0

CCSDS_OMM_VERS = 2.0
CREATION_DATE  = 
ORIGINATOR     = 

OBJECT_NAME    = CZ-2C R/B
OBJECT_ID      = 2004-012C
CENTER_NAME    = EARTH
REF_FRAME      = TEME
TIME_SYSTEM    = UTC
MEAN_ELEMENT_THEORY = SGP/SGP4

EPOCH          = 2026-01-24T03:31:54.538464
MEAN_MOTION    = 15.59420196
ECCENTRICITY   = .00170098
INCLINATION    = 97.7334
RA_OF_ASC_NODE = 85.3745
ARG_OF_PERICENTER = 114.0735
MEAN_ANOMALY   = 246.2303

EPHEMERIS_TYPE = 0
CLASSIFICATION_TYPE = U
NORAD_CAT_ID   = 28222
ELEMENT_SET_NO = 999
REV_AT_EPOCH   = 19732
BSTAR          = .85837703E-3
MEAN_MOTION_DOT = .6863E-3
MEAN_MOTION_DDOT = 0

CCSDS_OMM_VERS = 2.0
CREATION_DATE  = 
ORIGINATOR     = 

OBJECT_NAME    = SL-16 R/B
OBJECT_ID      = 2004-021B
CENTER_NAME    = EARTH
REF_FRAME      = TEME
TIME_SYSTEM    = UTC
MEAN_ELEMENT_THEORY = SGP/SGP4

EPOCH          = 2026-01-24T06:16:38.502336
MEAN_MOTION    = 14.14592074
ECCENTRICITY   = .0002649
INCLINATION    = 71.0026
RA_OF_ASC_NODE = 325.7297
ARG_OF_PERICENTER = 122.3541
MEAN_ANOMALY   = 237.7838

EPHEMERIS_TYPE = 0
CLASSIFICATION_TYPE = U
NORAD_CAT_ID   = 28353
ELEMENT_SET_NO = 999
REV_AT_EPOCH   = 11655
BSTAR          = -.51208559E-4
MEAN_MOTION_DOT = -.146E-5
MEAN_MOTION_DDOT = 0

CCSDS_OMM_VERS = 2.0
CREATION_DATE  = 
ORIGINATOR     = 

OBJECT_NAME    = CZ-4B R/B
OBJECT_ID      = 2004-035C
CENTER_NAME    = EARTH
REF_FRAME      = TEME
TIME_SYSTEM    = UTC
MEAN_ELEMENT_THEORY = SGP/SGP4

EPOCH          = 2026-01-24T00:05:26.377728
MEAN_MOTION    = 15.28192064
ECCENTRICITY   = .00341143
INCLINATION    = 97.3564
RA_OF_ASC_NODE = 58.7960
ARG_OF_PERICENTER = 125.5200
MEAN_ANOMALY   = 234.9230

EPHEMERIS_TYPE = 0
CLASSIFICATION_TYPE = U
NORAD_CAT_ID   = 28415
ELEMENT_SET_NO = 999
REV_AT_EPOCH   = 17308
BSTAR          = .4413487E-3
MEAN_MOTION_DOT = .12269E-3
MEAN_MOTION_DDOT = 0

CCSDS_OMM_VERS = 2.0
CREATION_DATE  = 
ORIGINATOR     = 

OBJECT_NAME    = CZ-2C R/B
OBJECT_ID      = 2004-046B
CENTER_NAME    = EARTH
REF_FRAME      = TEME
TIME_SYSTEM    = UTC
MEAN_ELEMENT_THEORY = SGP/SGP4

EPOCH          = 2026-01-24T05:46:21.640800
MEAN_MOTION    = 14.26972376
ECCENTRICITY   = .01382963
INCLINATION    = 98.2000
RA_OF_ASC_NODE = 301.9828
ARG_OF_PERICENTER = 286.5400
MEAN_ANOMALY   = 72.0629

EPHEMERIS_TYPE = 0
CLASSIFICATION_TYPE = U
NORAD_CAT_ID   = 28480
ELEMENT_SET_NO = 999
REV_AT_EPOCH   = 10216
BSTAR          = .15254523E-3
MEAN_MOTION_DOT = .368E-5
MEAN_MOTION_DDOT = 0

CCSDS_OMM_VERS = 2.0
CREATION_DATE  = 
ORIGINATOR     = 

OBJECT_NAME    = ARIANE 5 R/B
OBJECT_ID      = 2004-049H
CENTER_NAME    = EARTH
REF_FRAME      = TEME
TIME_SYSTEM    = UTC
MEAN_ELEMENT_THEORY = SGP/SGP4

EPOCH          = 2026-01-24T05:38:51.072576
MEAN_MOTION    = 14.85155604
ECCENTRICITY   = .0085198
INCLINATION    = 98.2556
RA_OF_ASC_NODE = 191.0513
ARG_OF_PERICENTER = 134.6052
MEAN_ANOMALY   = 226.2154

EPHEMERIS_TYPE = 0
CLASSIFICATION_TYPE = U
NORAD_CAT_ID   = 28499
ELEMENT_SET_NO = 999
REV_AT_EPOCH   = 13919
BSTAR          = .20763914E-3
MEAN_MOTION_DOT = .1833E-4
MEAN_MOTION_DDOT = 0

CCSDS_OMM_VERS = 2.0
CREATION_DATE  = 
ORIGINATOR     = 

OBJECT_NAME    = CZ-2D R/B
OBJECT_ID      = 2005-024B
CENTER_NAME    = EARTH
REF_FRAME      = TEME
TIME_SYSTEM    = UTC
MEAN_ELEMENT_THEORY = SGP/SGP4

EPOCH          = 2026-01-24T00:16:05.608128
MEAN_MOTION    = 15.56210148
ECCENTRICITY   = .00055076
INCLINATION    = 97.3626
RA_OF_ASC_NODE = 37.6534
ARG_OF_PERICENTER = 158.6768
MEAN_ANOMALY   = 201.4717

EPHEMERIS_TYPE = 0
CLASSIFICATION_TYPE = U
NORAD_CAT_ID   = 28738
ELEMENT_SET_NO = 999
REV_AT_EPOCH   = 13282
BSTAR          = .72739738E-3
MEAN_MOTION_DOT = .51153E-3
MEAN_MOTION_DDOT = 0

