IDEFIX & ARIANE 42P R/B 
1 27422U 02021B   26024.23604158  .00000643  00000+0  26092-3 0  9999
2 27422  98.5830 323.3863 0011217 323.4938  36.5480 14.30989591237663
AQUA                    
1 27424U 02022A   26024.27297532  .00002028  00000+0  41554-3 0  9999
2 27424  98.4098 350.8569 0001919  66.9735  38.1578 14.61854293262242
CZ-4B R/B               
1 27432U 02024C   26024.15752836  .00000139  00000+0  94243-4 0  9995
2 27432  98.8933  77.7680 0050736 148.6079 276.2436 14.14538810222945
MIDORI II (ADEOS-II)    
1 27597U 02056A   26024.14010947  .00000741  00000+0  30942-3 0  9995
2 27597  98.7697 342.3329 0001964 105.2463 254.8936 14.29246492203932
H-2A R/B                
1 27601U 02056E   26024.33258889  .00000690  00000+0  25681-3 0  9998
2 27601  98.3126 346.4091 0069166 294.3357 179.7226 14.33723133207750
CZ-4B R/B               
1 28059U 03049C   26024.23402126  .00000916  00000+0  22144-3 0  9995
2 28059  98.6829  17.4133 0048433   8.7857 351.4175 14.54963482180139
CZ-2C R/B               
1 28222U 04012C   26024.14715901  .00068630  00000+0  85838-3 0  9992
2 28222  97.7334  85.3745 0017009 114.0735 246.2303 15.59420196197325
SL-16 R/B               
1 28353U 04021B   26024.26155674 -.00000146  00000+0 -51209-4 0  9991
2 28353  71.0026 325.7297 0002649 122.3541 237.7838 14.14592074116556
CZ-4B R/B               
1 28415U 04035C   26024.00377752  .00012269  00000+0  44135-3 0  9996
2 28415  97.3564  58.7960 0034114 125.5200 234.9230 15.28192064173089
CZ-2C R/B               
1 28480U 04046B   26024.24052825  .00000368  00000+0  15255-3 0  9995
2 28480  98.2000 301.9828 0138296 286.5400  72.0629 14.26972376102161
ARIANE 5 R/B            
1 28499U 04049H   26024.23531334  .00001833  00000+0  20764-3 0  9993
2 28499  98.2556 191.0513 0085198 134.6052 226.2154 14.85155604139195
CZ-2D R/B               
1 28738U 05024B   26024.01117602  .00051153  00000+0  72740-3 0  9998
2 28738  97.3626  37.6534 0005507 158.6768 201.4717 15.56210148132820
